{
  "norad_id": 67203,
  "name": "STARLINK-36224",
  "history": [
    {
      "epoch": "2026-03-28T20:20:36.576384Z",
      "apogee_km": 574.809357904679,
      "perigee_km": 569.2693723240463,
      "latitude_deg": -3.250006264703054e-05,
      "longitude_deg": -5.232326858374068,
      "height_km": 574.4953168366227,
      "semi_major_axis_km": 6950.176365114362,
      "eccentricity": 0.00039855,
      "inclination_deg": 70.0001,
      "raan_deg": 126.1823,
      "arg_perigee_deg": 269.4297,
      "mean_anomaly_deg": 90.6405,
      "mean_motion_rev_day": 14.98335344
    },
    {
      "epoch": "2026-03-29T04:21:16.778880Z",
      "apogee_km": 574.7874119278076,
      "perigee_km": 569.2620333583054,
      "latitude_deg": 4.028265921857702e-05,
      "longitude_deg": -126.5704178323473,
      "height_km": 574.4917697139146,
      "semi_major_axis_km": 6950.161722643056,
      "eccentricity": 0.0003975,
      "inclination_deg": 70.0001,
      "raan_deg": 125.3407,
      "arg_perigee_deg": 269.1979,
      "mean_anomaly_deg": 90.8725,
      "mean_motion_rev_day": 14.98340079
    },
    {
      "epoch": "2026-03-30T05:59:25.490112Z",
      "apogee_km": 574.8036356673128,
      "perigee_km": 569.2423956291923,
      "latitude_deg": 3.6320998483866624e-05,
      "longitude_deg": -154.85263833214216,
      "height_km": 574.489790800768,
      "semi_major_axis_km": 6950.160015648253,
      "eccentricity": 0.00040008,
      "inclination_deg": 70.0,
      "raan_deg": 122.6476,
      "arg_perigee_deg": 269.209,
      "mean_anomaly_deg": 90.8611,
      "mean_motion_rev_day": 14.98340631
    },
    {
      "epoch": "2026-03-30T12:23:57.869664Z",
      "apogee_km": 574.7353728290454,
      "perigee_km": 569.3252236007684,
      "latitude_deg": 7.691856202319144e-05,
      "longitude_deg": 108.07645382760994,
      "height_km": 574.5287533151139,
      "semi_major_axis_km": 6950.167298214907,
      "eccentricity": 0.00038921,
      "inclination_deg": 70.0003,
      "raan_deg": 121.9748,
      "arg_perigee_deg": 268.5142,
      "mean_anomaly_deg": 91.5572,
      "mean_motion_rev_day": 14.98338276
    },
    {
      "epoch": "2026-03-31T12:25:58.789056Z",
      "apogee_km": 574.7336463363572,
      "perigee_km": 569.3148836045093,
      "latitude_deg": 3.813168639894839e-05,
      "longitude_deg": 104.05978585736322,
      "height_km": 574.35172243446,
      "semi_major_axis_km": 6950.161264970433,
      "eccentricity": 0.00038983,
      "inclination_deg": 70.0001,
      "raan_deg": 119.449,
      "arg_perigee_deg": 272.1327,
      "mean_anomaly_deg": 87.9386,
      "mean_motion_rev_day": 14.98340227
    },
    {
      "epoch": "2026-04-01T18:52:30.869760Z",
      "apogee_km": 574.777122502207,
      "perigee_km": 569.1239213118879,
      "latitude_deg": -2.1894750830333814e-05,
      "longitude_deg": 2.977277612306204,
      "height_km": 574.4668420441895,
      "semi_major_axis_km": 6950.087521907047,
      "eccentricity": 0.0004067,
      "inclination_deg": 69.9996,
      "raan_deg": 116.2504,
      "arg_perigee_deg": 268.2186,
      "mean_anomaly_deg": 91.8507,
      "mean_motion_rev_day": 14.98364074
    },
    {
      "epoch": "2026-04-02T18:54:31.784832Z",
      "apogee_km": 574.5951439925211,
      "perigee_km": 569.4791208136585,
      "latitude_deg": -1.7596370187387677e-05,
      "longitude_deg": -1.0390571854644006,
      "height_km": 574.7059042039687,
      "semi_major_axis_km": 6950.174132403089,
      "eccentricity": 0.00036805,
      "inclination_deg": 69.9994,
      "raan_deg": 113.7249,
      "arg_perigee_deg": 264.6009,
      "mean_anomaly_deg": 95.473,
      "mean_motion_rev_day": 14.98336066
    },
    {
      "epoch": "2026-04-03T10:55:52.534560Z",
      "apogee_km": 574.7128921570275,
      "perigee_km": 569.4004421256113,
      "latitude_deg": -5.622775596225622e-05,
      "longitude_deg": 116.28315390580208,
      "height_km": 574.6119223839435,
      "semi_major_axis_km": 6950.19366714132,
      "eccentricity": 0.00038218,
      "inclination_deg": 69.9993,
      "raan_deg": 112.0416,
      "arg_perigee_deg": 267.2581,
      "mean_anomaly_deg": 92.814,
      "mean_motion_rev_day": 14.98329749
    },
    {
      "epoch": "2026-04-04T10:57:54.359424Z",
      "apogee_km": 574.8274381290048,
      "perigee_km": 569.3111983783338,
      "latitude_deg": -4.8064047290611774e-05,
      "longitude_deg": 112.26351803949085,
      "height_km": 574.8230092171161,
      "semi_major_axis_km": 6950.2063182536685,
      "eccentricity": 0.00039684,
      "inclination_deg": 69.9988,
      "raan_deg": 109.5166,
      "arg_perigee_deg": 263.2244,
      "mean_anomaly_deg": 96.8463,
      "mean_motion_rev_day": 14.98325658
    },
    {
      "epoch": "2026-04-05T10:59:54.309408Z",
      "apogee_km": 574.3374104800841,
      "perigee_km": 569.5979950811652,
      "latitude_deg": -2.2185864868923818e-05,
      "longitude_deg": 108.25292111380031,
      "height_km": 574.5542599383987,
      "semi_major_axis_km": 6950.104702780624,
      "eccentricity": 0.00034096,
      "inclination_deg": 70.0003,
      "raan_deg": 106.9928,
      "arg_perigee_deg": 266.1615,
      "mean_anomaly_deg": 93.9154,
      "mean_motion_rev_day": 14.98358518
    },
    {
      "epoch": "2026-04-05T17:24:27.242784Z",
      "apogee_km": 574.1814479010372,
      "perigee_km": 569.920982525111,
      "latitude_deg": 1.171917060920678e-05,
      "longitude_deg": 11.179196146346374,
      "height_km": 574.5217653184806,
      "semi_major_axis_km": 6950.188215213074,
      "eccentricity": 0.0003065,
      "inclination_deg": 70.0001,
      "raan_deg": 106.3195,
      "arg_perigee_deg": 268.8429,
      "mean_anomaly_deg": 91.2379,
      "mean_motion_rev_day": 14.98331512
    },
    {
      "epoch": "2026-04-06T06:13:32.322432Z",
      "apogee_km": 574.648347858154,
      "perigee_km": 569.5664681519092,
      "latitude_deg": -4.1982669778461424e-05,
      "longitude_deg": 177.0330906266368,
      "height_km": 574.3263390113576,
      "semi_major_axis_km": 6950.244408005032,
      "eccentricity": 0.00036559,
      "inclination_deg": 69.9998,
      "raan_deg": 104.971,
      "arg_perigee_deg": 274.7197,
      "mean_anomaly_deg": 85.3544,
      "mean_motion_rev_day": 14.98313341
    },
    {
      "epoch": "2026-04-07T17:28:30.114048Z",
      "apogee_km": 574.2264920510252,
      "perigee_km": 569.8075841136133,
      "latitude_deg": -1.2436281603586825e-05,
      "longitude_deg": 3.1412580833824344,
      "height_km": 574.2488848401413,
      "semi_major_axis_km": 6950.154038082319,
      "eccentricity": 0.0003179,
      "inclination_deg": 70.001,
      "raan_deg": 101.2676,
      "arg_perigee_deg": 275.0849,
      "mean_anomaly_deg": 84.9947,
      "mean_motion_rev_day": 14.98342564
    },
    {
      "epoch": "2026-04-08T09:29:50.590752Z",
      "apogee_km": 574.3810546879977,
      "perigee_km": 569.7177576169261,
      "latitude_deg": 2.205508135556107e-05,
      "longitude_deg": 120.4652342251204,
      "height_km": 574.2921360979457,
      "semi_major_axis_km": 6950.186406152462,
      "eccentricity": 0.00033548,
      "inclination_deg": 70.0014,
      "raan_deg": 99.5849,
      "arg_perigee_deg": 274.554,
      "mean_anomaly_deg": 85.5236,
      "mean_motion_rev_day": 14.98332097
    },
    {
      "epoch": "2026-04-09T09:31:51.571488Z",
      "apogee_km": 574.1433341030488,
      "perigee_km": 569.9518167892893,
      "latitude_deg": -1.3181838721780061e-05,
      "longitude_deg": 116.44910693394948,
      "height_km": 574.0337867074734,
      "semi_major_axis_km": 6950.184575446169,
      "eccentricity": 0.00030154,
      "inclination_deg": 70.0024,
      "raan_deg": 97.0599,
      "arg_perigee_deg": 282.1557,
      "mean_anomaly_deg": 77.9264,
      "mean_motion_rev_day": 14.98332689
    }
  ]
}